ASTROCAST-0402          
1 55109U 23001DE  26068.80661100  .00010930  00000+0  41835-3 0  9996
2 55109  97.5556 160.6821 0004209 216.6984 143.3966 15.26734153129364
STARLINK-32743          
1 62480U 24254U   26068.19982302  .00025478  00000+0  93197-3 0  9990
2 62480  42.9994  18.6534 0002906 253.1247 106.9286 15.27585096 67583
